COMMENT,ORIGINATOR,NORAD_CAT_ID,OBJECT_NAME,OBJECT_TYPE,CLASSIFICATION_TYPE,INTLDES,EPOCH,EPOCH_MICROSECONDS,MEAN_MOTION,ECCENTRICITY,INCLINATION,RA_OF_ASC_NODE,ARG_OF_PERICENTER,MEAN_ANOMALY,EPHEMERIS_TYPE,ELEMENT_SET_NO,REV_AT_EPOCH,BSTAR,MEAN_MOTION_DOT,MEAN_MOTION_DDOT,FILE,TLE_LINE0,TLE_LINE1,TLE_LINE2,OBJECT_ID,OBJECT_NUMBER,SEMIMAJOR_AXIS,PERIOD,APOGEE,PERIGEE,DECAYED
"GENERATED VIA SPACETRACK.ORG API","18 SPCS","55089","SPACEBEE-163","PAYLOAD","U","23001CJ","2024-05-26 21:48:54","544032","15.51032368","0.0009679","97.4142","214.4197","214.5607","145.5017","0","999","7784","0.0014999","0.00088077","0","4328412","0 SPACEBEE-163","1 55089U 23001CJ  24147.90896463  .00088077  00000-0  14999-2 0  9990","2 55089  97.4142 214.4197 0009679 214.5607 145.5017 15.51032368 77843","2023-001CJ","55089","6791.848","92.841","420.286","407.139","0"
"GENERATED VIA SPACETRACK.ORG API","18 SPCS","55089","SPACEBEE-163","PAYLOAD","U","23001CJ","2024-05-27 10:12:06","530976","15.51113485","0.000979","97.414","214.9525","212.5256","147.5393","0","999","7792","0.0013998","0.00082375","0","4329170","0 SPACEBEE-163","1 55089U 23001CJ  24148.42507559  .00082375  00000-0  13998-2 0  9996","2 55089  97.4140 214.9525 0009790 212.5256 147.5393 15.51113485 77921","2023-001CJ","55089","6791.611","92.837","420.125","406.827","0"
"GENERATED VIA SPACETRACK.ORG API","18 SPCS","55089","SPACEBEE-163","PAYLOAD","U","23001CJ","2024-05-27 17:56:35","293344","15.51165599","0.000967","97.4139","215.2849","212.4477","147.6181","0","999","7797","0.0012485","0.00073512","0","4329284","0 SPACEBEE-163","1 55089U 23001CJ  24148.74763071  .00073512  00000-0  12485-2 0  9997","2 55089  97.4139 215.2849 0009670 212.4477 147.6181 15.51165599 77977","2023-001CJ","55089","6791.459","92.833","419.891","406.756","0"
"GENERATED VIA SPACETRACK.ORG API","18 SPCS","55089","SPACEBEE-163","PAYLOAD","U","23001CJ","2024-05-27 17:56:35","293344","15.51165599","0.000967","97.4139","215.2849","212.4477","147.6181","0","999","7797","0.0012485","0.00073512","0","4329288","0 SPACEBEE-163","1 55089U 23001CJ  24148.74763071  .00073512  00000-0  12485-2 0  9997","2 55089  97.4139 215.2849 0009670 212.4477 147.6181 15.51165599 77977","2023-001CJ","55089","6791.459","92.833","419.891","406.756","0"
"GENERATED VIA SPACETRACK.ORG API","18 SPCS","55089","SPACEBEE-163","PAYLOAD","U","23001CJ","2024-05-28 03:13:56","574912","15.5122769","0.0009798","97.4139","215.6832","210.9243","149.1433","0","999","7803","0.0012264","0.00072362","0","4329851","0 SPACEBEE-163","1 55089U 23001CJ  24149.13468258  .00072362  00000-0  12264-2 0  9997","2 55089  97.4139 215.6832 0009798 210.9243 149.1433 15.51227690 78034","2023-001CJ","55089","6791.277","92.830","419.797","406.488","0"
"GENERATED VIA SPACETRACK.ORG API","18 SPCS","55089","SPACEBEE-163","PAYLOAD","U","23001CJ","2024-05-28 15:37:02","949312","15.51303927","0.000984","97.4139","216.2155","208.6269","151.4444","0","999","7811","0.0011578","0.00068462","0","4330098","0 SPACEBEE-163","1 55089U 23001CJ  24149.65072858  .00068462  00000-0  11578-2 0  9994","2 55089  97.4139 216.2155 0009840 208.6269 151.4444 15.51303927 78114","2023-001CJ","55089","6791.055","92.825","419.602","406.238","0"
"GENERATED VIA SPACETRACK.ORG API","18 SPCS","55089","SPACEBEE-163","PAYLOAD","U","23001CJ","2024-05-29 04:00:07","23744","15.51385962","0.0009977","97.414","216.747","207.0358","153.0375","0","999","7819","0.0011219","0.00066517","0","4330413","0 SPACEBEE-163","1 55089U 23001CJ  24150.16674796  .00066517  00000-0  11219-2 0  9992","2 55089  97.4140 216.7470 0009977 207.0358 153.0375 15.51385962 78192","2023-001CJ","55089","6790.816","92.820","419.456","405.905","0"
"GENERATED VIA SPACETRACK.ORG API","18 SPCS","55089","SPACEBEE-163","PAYLOAD","U","23001CJ","2024-05-29 04:00:07","23744","15.51385962","0.0009977","97.414","216.747","207.0358","153.0375","0","999","7819","0.0011219","0.00066517","0","4330703","0 SPACEBEE-163","1 55089U 23001CJ  24150.16674796  .00066517  00000-0  11219-2 0  9992","2 55089  97.4140 216.7470 0009977 207.0358 153.0375 15.51385962 78192","2023-001CJ","55089","6790.816","92.820","419.456","405.905","0"
"GENERATED VIA SPACETRACK.ORG API","18 SPCS","55089","SPACEBEE-163","PAYLOAD","U","23001CJ","2024-05-29 17:56:01","516128","15.51472818","0.0010053","97.4138","217.3455","205.2663","154.8098","0","999","7828","0.0012668","0.00075439","0","4331016","0 SPACEBEE-163","1 55089U 23001CJ  24150.74723977  .00075439  00000-0  12668-2 0  9994","2 55089  97.4138 217.3455 0010053 205.2663 154.8098 15.51472818 78283","2023-001CJ","55089","6790.562","92.815","419.254","405.601","0"
"GENERATED VIA SPACETRACK.ORG API","18 SPCS","55089","SPACEBEE-163","PAYLOAD","U","23001CJ","2024-05-30 03:13:16","212288","15.51537221","0.001008","97.4139","217.7442","204.1672","155.9109","0","999","7834","0.0013387","0.00079955","0","4331273","0 SPACEBEE-163","1 55089U 23001CJ  24151.13421542  .00079955  00000-0  13387-2 0  9997","2 55089  97.4139 217.7442 0010080 204.1672 155.9109 15.51537221 78344","2023-001CJ","55089","6790.374","92.811","419.084","405.395","0"
"GENERATED VIA SPACETRACK.ORG API","18 SPCS","55089","SPACEBEE-163","PAYLOAD","U","23001CJ","2024-05-30 03:13:16","212288","15.51537221","0.001008","97.4139","217.7442","204.1672","155.9109","0","999","7834","0.0013387","0.00079955","0","4331646","0 SPACEBEE-163","1 55089U 23001CJ  24151.13421542  .00079955  00000-0  13387-2 0  9997","2 55089  97.4139 217.7442 0010080 204.1672 155.9109 15.51537221 78344","2023-001CJ","55089","6790.374","92.811","419.084","405.395","0"
"GENERATED VIA SPACETRACK.ORG API","18 SPCS","55089","SPACEBEE-163","PAYLOAD","U","23001CJ","2024-05-30 17:09:05","898240","15.51633509","0.0009867","97.4141","218.3435","203.187","156.8938","0","999","7843","0.0019612","0.00118132","0","4331912","0 SPACEBEE-163","1 55089U 23001CJ  24151.71465160  .00118132  00000-0  19612-2 0  9993","2 55089  97.4141 218.3435 0009867 203.1870 156.8938 15.51633509 78432","2023-001CJ","55089","6790.093","92.805","418.658","405.259","0"
"GENERATED VIA SPACETRACK.ORG API","18 SPCS","55089","SPACEBEE-163","PAYLOAD","U","23001CJ","2024-05-31 03:59:08","834208","15.51713673","0.0009901","97.4143","218.8087","202.0298","158.053","0","999","7850","0.0016864","0.00101649","0","4332216","0 SPACEBEE-163","1 55089U 23001CJ  24152.16607447  .00101649  00000-0  16864-2 0  9990","2 55089  97.4143 218.8087 0009901 202.0298 158.0530 15.51713673 78504","2023-001CJ","55089","6789.859","92.801","418.447","405.002","0"
"GENERATED VIA SPACETRACK.ORG API","18 SPCS","55089","SPACEBEE-163","PAYLOAD","U","23001CJ","2024-05-31 03:59:08","834208","15.51713673","0.0009901","97.4143","218.8087","202.0298","158.053","0","999","7850","0.0016864","0.00101649","0","4332540","0 SPACEBEE-163","1 55089U 23001CJ  24152.16607447  .00101649  00000-0  16864-2 0  9990","2 55089  97.4143 218.8087 0009901 202.0298 158.0530 15.51713673 78504","2023-001CJ","55089","6789.859","92.801","418.447","405.002","0"
"GENERATED VIA SPACETRACK.ORG API","18 SPCS","55089","SPACEBEE-163","PAYLOAD","U","23001CJ","2024-05-31 17:54:52","424640","15.51839258","0.0009824","97.4142","219.4077","200.6486","159.4371","0","999","7859","0.0024224","0.00147545","0","4332864","0 SPACEBEE-163","1 55089U 23001CJ  24152.74644010  .00147545  00000-0  24224-2 0  9995","2 55089  97.4142 219.4077 0009824 200.6486 159.4371 15.51839258 78591","2023-001CJ","55089","6789.493","92.793","418.028","404.688","0"
"GENERATED VIA SPACETRACK.ORG API","18 SPCS","55089","SPACEBEE-163","PAYLOAD","U","23001CJ","2024-05-31 17:54:52","424640","15.51839258","0.0009824","97.4142","219.4077","200.6486","159.4371","0","999","7859","0.0024224","0.00147545","0","4333223","0 SPACEBEE-163","1 55089U 23001CJ  24152.74644010  .00147545  00000-0  24224-2 0  9995","2 55089  97.4142 219.4077 0009824 200.6486 159.4371 15.51839258 78591","2023-001CJ","55089","6789.493","92.793","418.028","404.688","0"
"GENERATED VIA SPACETRACK.ORG API","18 SPCS","55089","SPACEBEE-163","PAYLOAD","U","23001CJ","2024-06-01 03:11:59","653248","15.51888452","0.0009888","97.4145","219.8066","199.5872","160.5002","0","999","7865","0.0015353","0.00093011","0","4333220","0 SPACEBEE-163","1 55089U 23001CJ  24153.13332932  .00093011  00000-0  15353-2 0  9997","2 55089  97.4145 219.8066 0009888 199.5872 160.5002 15.51888452 78652","2023-001CJ","55089","6789.350","92.790","417.928","404.501","0"
"GENERATED VIA SPACETRACK.ORG API","18 SPCS","55089","SPACEBEE-163","PAYLOAD","U","23001CJ","2024-06-01 03:11:59","653248","15.51888452","0.0009888","97.4145","219.8066","199.5872","160.5002","0","999","7865","0.0015353","0.00093011","0","4333553","0 SPACEBEE-163","1 55089U 23001CJ  24153.13332932  .00093011  00000-0  15353-2 0  9997","2 55089  97.4145 219.8066 0009888 199.5872 160.5002 15.51888452 78652","2023-001CJ","55089","6789.350","92.790","417.928","404.501","0"
"GENERATED VIA SPACETRACK.ORG API","18 SPCS","55089","SPACEBEE-163","PAYLOAD","U","23001CJ","2024-06-01 17:07:37","772832","15.51983612","0.0009709","97.4145","220.4057","197.97","162.121","0","999","7874","0.0013796","0.00083751","0","4333829","0 SPACEBEE-163","1 55089U 23001CJ  24153.71363163  .00083751  00000-0  13796-2 0  9990","2 55089  97.4145 220.4057 0009709 197.9700 162.1210 15.51983612 78747","2023-001CJ","55089","6789.072","92.784","417.529","404.346","0"
"GENERATED VIA SPACETRACK.ORG API","18 SPCS","55089","SPACEBEE-163","PAYLOAD","U","23001CJ","2024-06-02 03:57:31","806144","15.52065012","0.0009841","97.4148","220.8709","196.8154","163.2774","0","999","7881","0.0013555","0.00082517","0","4334418","0 SPACEBEE-163","1 55089U 23001CJ  24154.16495146  .00082517  00000-0  13555-2 0  9999","2 55089  97.4148 220.8709 0009841 196.8154 163.2774 15.52065012 78817","2023-001CJ","55089","6788.835","92.780","417.381","404.019","0"
